[{"OBJECT_NAME":"STARLINK-33985","OBJECT_ID":"2025-098T","EPOCH":"2026-03-09T22:38:13.435584","MEAN_MOTION":14.983213,"ECCENTRICITY":0.00023047,"INCLINATION":70.0004,"RA_OF_ASC_NODE":273.6729,"ARG_OF_PERICENTER":275.3083,"MEAN_ANOMALY":84.7813,"EPHEMERIS_TYPE":0,"CLASSIFICATION_TYPE":"U","NORAD_CAT_ID":63943,"ELEMENT_SET_NO":999,"REV_AT_EPOCH":4659,"BSTAR":0.00043903687,"MEAN_MOTION_DOT":5.148e-5,"MEAN_MOTION_DDOT":0},{"OBJECT_NAME":"COSMOS 2251 DEB","OBJECT_ID":"1993-036AEJ","EPOCH":"2026-03-09T08:48:35.922816","MEAN_MOTION":15.02476958,"ECCENTRICITY":0.00716068,"INCLINATION":74.0345,"RA_OF_ASC_NODE":70.0126,"ARG_OF_PERICENTER":118.4324,"MEAN_ANOMALY":242.4105,"EPHEMERIS_TYPE":0,"CLASSIFICATION_TYPE":"U","NORAD_CAT_ID":34955,"ELEMENT_SET_NO":999,"REV_AT_EPOCH":91334,"BSTAR":0.00064056468,"MEAN_MOTION_DOT":8.958e-5,"MEAN_MOTION_DDOT":0}]
